OBJECT_NAME,OBJECT_ID,EPOCH,MEAN_MOTION,ECCENTRICITY,INCLINATION,RA_OF_ASC_NODE,ARG_OF_PERICENTER,MEAN_ANOMALY,EPHEMERIS_TYPE,CLASSIFICATION_TYPE,NORAD_CAT_ID,ELEMENT_SET_NO,REV_AT_EPOCH,BSTAR,MEAN_MOTION_DOT,MEAN_MOTION_DDOT
SL-3 R/B,1983-075B,2024-10-05T02:58:12.948672,15.24370503,0.0026959,97.581,259.3238,274.6786,85.1372,0,U,14208,999,25075,9.65E-04,2.38E-04,0
COSMOS 1536,1984-013A,2024-10-04T23:45:09.111456,15.14560172,0.0015289,82.5455,261.8983,302.5926,57.3829,0,U,14699,999,21469,9.36E-04,1.73E-04,0
SL-8 R/B,1985-006B,2024-10-05T01:33:35.491104,14.37230539,0.0018884,74.0448,138.7794,185.2367,283.9742,0,U,15483,999,7948,4.96E-04,1.46E-05,0
COSMOS 1626,1985-009A,2024-10-04T21:32:34.937376,15.7042241,0.0002288,82.4581,73.9236,335.3988,24.7164,0,U,15494,999,17593,1.29E-03,1.60E-03,0
SL-12 R/B(2),1985-042D,2024-10-04T21:26:45.849408,14.21713355,0.0036656,71.106,107.8236,219.0517,240.1211,0,U,15772,999,4036,3.41E-04,7.06E-06,0
SL-16 R/B,1985-097B,2024-10-04T22:05:35.219328,14.16470727,0.0008889,71.0028,156.8305,317.7077,124.1957,0,U,16182,999,1348,2.49E-04,4.47E-06,0
SL-14 R/B,1986-006B,2024-10-04T20:41:47.232672,14.85595468,0.0017377,82.5283,29.4524,263.1823,219.8846,0,U,16496,999,7184,3.53E-04,3.08E-05,0
COSMOS 1743,1986-034A,2024-10-04T21:48:34.423200,15.31526172,0.0008863,82.5429,247.6744,25.3666,334.8008,0,U,16719,999,9991,1.14E-03,3.49E-04,0
SL-14 R/B,1986-046B,2024-10-04T21:19:52.352832,14.84672636,0.002453,82.4846,211.8635,144.8684,215.4155,0,U,16792,999,4910,3.49E-04,2.99E-05,0
SL-14 R/B,1986-055B,2024-10-05T05:26:09.645792,14.84705815,0.0017616,82.5183,255.5476,251.3485,119.1632,0,U,16882,999,6328,3.50E-04,2.99E-05,0
AJISAI (EGS),1986-061A,2024-10-05T05:34:45.636096,12.4450799,0.0011355,50.0078,253.732,42.2843,331.8179,0,U,16908,999,40354,3.53E-05,-9.20E-07,0
COSMOS 1812,1987-003A,2024-10-04T18:37:41.882880,15.36615601,0.0002134,82.509,25.3727,196.4116,163.7059,0,U,17295,999,6332,1.32E-03,4.73E-04,0
SL-16 R/B,1987-027B,2024-10-05T04:22:59.302848,14.17023247,0.0006133,71.0019,293.2236,218.1463,141.9227,0,U,17590,999,94187,8.71E-05,1.27E-06,0
SL-14 R/B,1987-038B,2024-10-04T21:47:58.860960,14.84460895,0.0021039,82.5005,67.0493,85.3436,275.0182,0,U,17912,999,194,3.51E-04,2.99E-05,0
SL-14 R/B,1987-055B,2024-10-05T01:03:00.352512,14.84717016,0.0019673,82.4969,119.5062,296.397,63.5226,0,U,18153,999,1374,2.55E-04,2.19E-05,0
COSMOS 1867,1987-060A,2024-10-05T03:51:58.251168,14.31354334,0.0020667,65.012,324.3034,265.1284,94.744,0,U,18187,999,94565,1.63E-04,3.35E-06,0
SL-3 R/B,1988-032B,2024-10-05T03:12:40.320000,15.11921455,0.0028638,97.4616,258.0905,237.8573,121.9878,0,U,19046,999,97350,9.23E-04,1.59E-04,0
SL-16 R/B,1988-039B,2024-10-04T21:16:04.492704,14.19461397,0.0019952,71.013,89.6754,55.4591,304.8413,0,U,19120,999,88447,2.50E-04,4.79E-06,0
COSMOS 1953,1988-050A,2024-10-04T12:54:08.600256,15.1771671,0.0015366,82.5117,318.5807,147.837,212.3804,0,U,19210,999,95843,9.15E-04,1.86E-04,0
SL-8 R/B,1988-053B,2024-10-04T17:02:23.287200,14.38371372,0.0021363,74.0503,352.4041,301.2585,175.2745,0,U,19257,999,90167,5.09E-04,1.53E-05,0
COSMOS 1975,1988-093A,2024-10-05T01:57:35.692704,15.16941913,0.0014214,82.5208,275.9811,188.3387,171.7612,0,U,19573,999,96134,1.23E-03,2.45E-04,0
