AJISAI (EGS)            
1 16908U 86061A   24279.23247264 -.00000092  00000+0  35286-4 0  9998
2 16908  50.0078 253.7320 0011355  42.2843 331.8179 12.44507990403545
SL-3 R/B                
1 14208U 83075B   24279.12376098  .00023843  00000+0  96460-3 0  9995
2 14208  97.5810 259.3238 0026959 274.6786  85.1372 15.24370503250755
COSMOS 1536             
1 14699U 84013A   24278.98968879  .00017348  00000+0  93562-3 0  9992
2 14699  82.5455 261.8983 0015289 302.5926  57.3829 15.14560172214697
SL-8 R/B                
1 15483U 85006B   24279.06499411  .00001455  00000+0  49611-3 0  9996
2 15483  74.0448 138.7794 0018884 185.2367 283.9742 14.37230539 79480
COSMOS 1626             
1 15494U 85009A   24278.89762659  .00159646  00000+0  12855-2 0  9993
2 15494  82.4581  73.9236 0002288 335.3988  24.7164 15.70422410175937
SL-12 R/B(2)            
1 15772U 85042D   24278.89358622  .00000706  00000+0  34052-3 0  9996
2 15772  71.1060 107.8236 0036656 219.0517 240.1211 14.21713355 40363
SL-16 R/B               
1 16182U 85097B   24278.92054652  .00000447  00000+0  24854-3 0  9993
2 16182  71.0028 156.8305 0008889 317.7077 124.1957 14.16470727 13485
SL-14 R/B               
1 16496U 86006B   24278.86235223  .00003080  00000+0  35254-3 0  9992
2 16496  82.5283  29.4524 0017377 263.1823 219.8846 14.85595468 71845
COSMOS 1743             
1 16719U 86034A   24278.90873175  .00034907  00000+0  11411-2 0  9990
2 16719  82.5429 247.6744 0008863  25.3666 334.8008 15.31526172 99910
SL-14 R/B               
1 16792U 86046B   24278.88880038  .00002992  00000+0  34911-3 0  9997
2 16792  82.4846 211.8635 0024530 144.8684 215.4155 14.84672636 49108
SL-14 R/B               
1 16882U 86055B   24279.22650053  .00002990  00000+0  34963-3 0  9993
2 16882  82.5183 255.5476 0017616 251.3485 119.1632 14.84705815 63282
COSMOS 1812             
1 17295U 87003A   24278.77617920  .00047282  00000+0  13160-2 0  9999
2 17295  82.5090  25.3727 0002134 196.4116 163.7059 15.36615601 63323
SL-16 R/B               
1 17590U 87027B   24279.18263082  .00000127  00000+0  87058-4 0  9991
2 17590  71.0019 293.2236 0006133 218.1463 141.9227 14.17023247941873
SL-14 R/B               
1 17912U 87038B   24278.90832015  .00002987  00000+0  35086-3 0  9997
2 17912  82.5005  67.0493 0021039  85.3436 275.0182 14.84460895  1943
SL-14 R/B               
1 18153U 87055B   24279.04375408  .00002192  00000+0  25536-3 0  9995
2 18153  82.4969 119.5062 0019673 296.3970  63.5226 14.84717016 13742
COSMOS 1867             
1 18187U 87060A   24279.16109087  .00000335  00000+0  16339-3 0  9997
2 18187  65.0120 324.3034 0020667 265.1284  94.7440 14.31354334945657
SL-3 R/B                
1 19046U 88032B   24279.13380000  .00015934  00000+0  92343-3 0  9995
2 19046  97.4616 258.0905 0028638 237.8573 121.9878 15.11921455973500
SL-16 R/B               
1 19120U 88039B   24278.88616311  .00000479  00000+0  24950-3 0  9990
2 19120  71.0130  89.6754 0019952  55.4591 304.8413 14.19461397884470
COSMOS 1953             
1 19210U 88050A   24278.53759954  .00018561  00000+0  91510-3 0  9993
2 19210  82.5117 318.5807 0015366 147.8370 212.3804 15.17716710958437
SL-8 R/B                
1 19257U 88053B   24278.70999175  .00001530  00000+0  50920-3 0  9995
2 19257  74.0503 352.4041 0021363 301.2585 175.2745 14.38371372901676
COSMOS 1975             
1 19573U 88093A   24279.08166311  .00024495  00000+0  12348-2 0  9996
2 19573  82.5208 275.9811 0014214 188.3387 171.7612 15.16941913961343
